IRIDIUM 159             
1 43578U 18061K   24198.17215723  .00000006  00000+0 -48725-5 0  9992
2 43578  86.3986 349.6646 0001810  95.0695 265.0708 14.34217548312903
IRIDIUM 180             
1 43922U 19002A   24198.17165442  .00000019  00000+0 -21268-6 0  9991
2 43922  86.3964 286.5442 0002161  98.9057 261.2383 14.34217177288557
IRIDIUM 176             
1 43923U 19002B   24198.20803333  .00001782  00000+0  27856-3 0  9997
2 43923  86.6093 286.5486 0002160  95.1572 264.9892 14.72269672296117
IRIDIUM 168             
1 43924U 19002C   24198.23507966  .00000066  00000+0  16551-4 0  9999
2 43924  86.3968 286.5753 0002143  93.9141 266.2300 14.34218231288508
IRIDIUM 173             
1 43925U 19002D   24197.94332078  .00000087  00000+0  23858-4 0  9998
2 43925  86.3964 286.6148 0002101  94.8788 265.2648 14.34217999288442
IRIDIUM 169             
1 43926U 19002E   24197.71276818  .00000067  00000+0  15253-4 0  9991
2 43926  86.4243 318.3397 0003812 117.8992 242.2592 14.38605556289376
IRIDIUM 172             
1 43927U 19002F   24197.79742553  .00000017  00000+0 -11081-5 0  9996
2 43927  86.3965 286.6815 0002263  92.5240 267.6215 14.34213045288436
IRIDIUM 175             
1 43928U 19002G   24197.93053629  .00001441  00000+0  22446-3 0  9998
2 43928  86.1492 258.1803 0002371 101.1271 259.0212 14.72256956296062
